[{"OBJECT_NAME":"STARLINK-36297","OBJECT_ID":"2026-022Z","EPOCH":"2026-03-04T01:00:19.716768","MEAN_MOTION":15.75348738,"ECCENTRICITY":8.09e-5,"INCLINATION":97.2837,"RA_OF_ASC_NODE":96.797,"ARG_OF_PERICENTER":158.5022,"MEAN_ANOMALY":201.6277,"EPHEMERIS_TYPE":0,"CLASSIFICATION_TYPE":"U","NORAD_CAT_ID":67671,"ELEMENT_SET_NO":999,"REV_AT_EPOCH":466,"BSTAR":0.0022646,"MEAN_MOTION_DOT":0.00354498,"MEAN_MOTION_DDOT":0},{"OBJECT_NAME":"STARLINK-36616","OBJECT_ID":"2026-022AA","EPOCH":"2026-03-04T10:11:15.345024","MEAN_MOTION":15.75280254,"ECCENTRICITY":0.0001183,"INCLINATION":97.2833,"RA_OF_ASC_NODE":97.1947,"ARG_OF_PERICENTER":49.7325,"MEAN_ANOMALY":310.4043,"EPHEMERIS_TYPE":0,"CLASSIFICATION_TYPE":"U","NORAD_CAT_ID":67672,"ELEMENT_SET_NO":999,"REV_AT_EPOCH":472,"BSTAR":0.0024849,"MEAN_MOTION_DOT":0.00389445,"MEAN_MOTION_DDOT":0},{"OBJECT_NAME":"COSMOS 2600","OBJECT_ID":"2026-023A","EPOCH":"2026-03-04T11:13:35.180256","MEAN_MOTION":15.83171323,"ECCENTRICITY":0.0002307,"INCLINATION":96.6438,"RA_OF_ASC_NODE":139.2759,"ARG_OF_PERICENTER":357.5174,"MEAN_ANOMALY":2.6085,"EPHEMERIS_TYPE":0,"CLASSIFICATION_TYPE":"U","NORAD_CAT_ID":67674,"ELEMENT_SET_NO":999,"REV_AT_EPOCH":422,"BSTAR":0.00045327,"MEAN_MOTION_DOT":0.00097746,"MEAN_MOTION_DDOT":0},{"OBJECT_NAME":"2026-023B","OBJECT_ID":"2026-023B","EPOCH":"2026-03-04T09:33:11.899296","MEAN_MOTION":15.22849981,"ECCENTRICITY":0.0019232,"INCLINATION":96.6368,"RA_OF_ASC_NODE":136.9588,"ARG_OF_PERICENTER":149.866,"MEAN_ANOMALY":210.369,"EPHEMERIS_TYPE":0,"CLASSIFICATION_TYPE":"U","NORAD_CAT_ID":67675,"ELEMENT_SET_NO":999,"REV_AT_EPOCH":405,"BSTAR":0.00075835,"MEAN_MOTION_DOT":0.00017809,"MEAN_MOTION_DDOT":0},{"OBJECT_NAME":"2026-023C","OBJECT_ID":"2026-023C","EPOCH":"2026-03-04T11:05:54.862656","MEAN_MOTION":15.22954337,"ECCENTRICITY":0.0020298,"INCLINATION":96.6403,"RA_OF_ASC_NODE":137.0391,"ARG_OF_PERICENTER":140.0758,"MEAN_ANOMALY":220.1978,"EPHEMERIS_TYPE":0,"CLASSIFICATION_TYPE":"U","NORAD_CAT_ID":67676,"ELEMENT_SET_NO":999,"REV_AT_EPOCH":422,"BSTAR":0.00077493,"MEAN_MOTION_DOT":0.00018268,"MEAN_MOTION_DDOT":0},{"OBJECT_NAME":"2026-023D","OBJECT_ID":"2026-023D","EPOCH":"2026-03-04T11:09:29.614176","MEAN_MOTION":15.22772595,"ECCENTRICITY":0.0020513,"INCLINATION":96.6434,"RA_OF_ASC_NODE":137.0274,"ARG_OF_PERICENTER":144.9251,"MEAN_ANOMALY":215.3343,"EPHEMERIS_TYPE":0,"CLASSIFICATION_TYPE":"U","NORAD_CAT_ID":67677,"ELEMENT_SET_NO":999,"REV_AT_EPOCH":405,"BSTAR":0.00074039,"MEAN_MOTION_DOT":0.00017357,"MEAN_MOTION_DDOT":0},{"OBJECT_NAME":"2026-023E","OBJECT_ID":"2026-023E","EPOCH":"2026-03-04T06:22:42.218688","MEAN_MOTION":15.22936382,"ECCENTRICITY":0.0020252,"INCLINATION":96.6328,"RA_OF_ASC_NODE":136.8344,"ARG_OF_PERICENTER":145.0922,"MEAN_ANOMALY":215.165,"EPHEMERIS_TYPE":0,"CLASSIFICATION_TYPE":"U","NORAD_CAT_ID":67678,"ELEMENT_SET_NO":999,"REV_AT_EPOCH":402,"BSTAR":0.00087008,"MEAN_MOTION_DOT":0.00020513,"MEAN_MOTION_DDOT":0},{"OBJECT_NAME":"2026-023F","OBJECT_ID":"2026-023F","EPOCH":"2026-03-04T12:37:33.494304","MEAN_MOTION":15.23098857,"ECCENTRICITY":0.0022143,"INCLINATION":96.6335,"RA_OF_ASC_NODE":139.5666,"ARG_OF_PERICENTER":139.0549,"MEAN_ANOMALY":221.2358,"EPHEMERIS_TYPE":0,"CLASSIFICATION_TYPE":"U","NORAD_CAT_ID":67679,"ELEMENT_SET_NO":999,"REV_AT_EPOCH":405,"BSTAR":0.00091989,"MEAN_MOTION_DOT":0.00021823,"MEAN_MOTION_DDOT":0},{"OBJECT_NAME":"2026-023G","OBJECT_ID":"2026-023G","EPOCH":"2026-03-04T12:38:34.236096","MEAN_MOTION":15.23057851,"ECCENTRICITY":0.0023717,"INCLINATION":96.6264,"RA_OF_ASC_NODE":139.5492,"ARG_OF_PERICENTER":135.7218,"MEAN_ANOMALY":224.5923,"EPHEMERIS_TYPE":0,"CLASSIFICATION_TYPE":"U","NORAD_CAT_ID":67680,"ELEMENT_SET_NO":999,"REV_AT_EPOCH":405,"BSTAR":0.00087281,"MEAN_MOTION_DOT":0.00020696,"MEAN_MOTION_DDOT":0},{"OBJECT_NAME":"2026-023H","OBJECT_ID":"2026-023H","EPOCH":"2026-03-04T12:38:44.142720","MEAN_MOTION":15.22988878,"ECCENTRICITY":0.0023796,"INCLINATION":96.6408,"RA_OF_ASC_NODE":139.58,"ARG_OF_PERICENTER":135.0776,"MEAN_ANOMALY":225.2394,"EPHEMERIS_TYPE":0,"CLASSIFICATION_TYPE":"U","NORAD_CAT_ID":67681,"ELEMENT_SET_NO":999,"REV_AT_EPOCH":405,"BSTAR":0.00073671,"MEAN_MOTION_DOT":0.00017417,"MEAN_MOTION_DDOT":0},{"OBJECT_NAME":"2026-023J","OBJECT_ID":"2026-023J","EPOCH":"2026-03-04T12:37:04.906272","MEAN_MOTION":15.23092268,"ECCENTRICITY":0.0023929,"INCLINATION":96.6364,"RA_OF_ASC_NODE":139.5847,"ARG_OF_PERICENTER":131.9925,"MEAN_ANOMALY":228.3357,"EPHEMERIS_TYPE":0,"CLASSIFICATION_TYPE":"U","NORAD_CAT_ID":67682,"ELEMENT_SET_NO":999,"REV_AT_EPOCH":405,"BSTAR":0.0008812,"MEAN_MOTION_DOT":0.0002092,"MEAN_MOTION_DDOT":0},{"OBJECT_NAME":"ISS OBJECT XZ","OBJECT_ID":"1998-067XZ","EPOCH":"2026-03-04T07:37:01.846272","MEAN_MOTION":15.5133766,"ECCENTRICITY":0.0009491,"INCLINATION":51.6304,"RA_OF_ASC_NODE":98.5346,"ARG_OF_PERICENTER":167.7937,"MEAN_ANOMALY":192.3284,"EPHEMERIS_TYPE":0,"CLASSIFICATION_TYPE":"U","NORAD_CAT_ID":67683,"ELEMENT_SET_NO":999,"REV_AT_EPOCH":395,"BSTAR":0.00087421,"MEAN_MOTION_DOT":0.00052289,"MEAN_MOTION_DDOT":0},{"OBJECT_NAME":"GXIBA-1","OBJECT_ID":"1998-067YA","EPOCH":"2026-03-04T08:41:37.516128","MEAN_MOTION":15.53373762,"ECCENTRICITY":0.0010966,"INCLINATION":51.6304,"RA_OF_ASC_NODE":98.0837,"ARG_OF_PERICENTER":158.3351,"MEAN_ANOMALY":201.8106,"EPHEMERIS_TYPE":0,"CLASSIFICATION_TYPE":"U","NORAD_CAT_ID":67684,"ELEMENT_SET_NO":999,"REV_AT_EPOCH":396,"BSTAR":0.0015928,"MEAN_MOTION_DOT":0.00103687,"MEAN_MOTION_DDOT":0},{"OBJECT_NAME":"CORAL","OBJECT_ID":"1998-067YB","EPOCH":"2026-03-04T07:32:17.590272","MEAN_MOTION":15.51642058,"ECCENTRICITY":0.0011399,"INCLINATION":51.6305,"RA_OF_ASC_NODE":98.5128,"ARG_OF_PERICENTER":164.0725,"MEAN_ANOMALY":196.0625,"EPHEMERIS_TYPE":0,"CLASSIFICATION_TYPE":"U","NORAD_CAT_ID":67685,"ELEMENT_SET_NO":999,"REV_AT_EPOCH":395,"BSTAR":0.00095212,"MEAN_MOTION_DOT":0.00057704,"MEAN_MOTION_DDOT":0},{"OBJECT_NAME":"ISS OBJECT YC","OBJECT_ID":"1998-067YC","EPOCH":"2026-03-04T07:26:44.044800","MEAN_MOTION":15.52065011,"ECCENTRICITY":0.0007745,"INCLINATION":51.6308,"RA_OF_ASC_NODE":98.4887,"ARG_OF_PERICENTER":132.0357,"MEAN_ANOMALY":228.1293,"EPHEMERIS_TYPE":0,"CLASSIFICATION_TYPE":"U","NORAD_CAT_ID":67686,"ELEMENT_SET_NO":999,"REV_AT_EPOCH":395,"BSTAR":0.0011372,"MEAN_MOTION_DOT":0.00070087,"MEAN_MOTION_DDOT":0},{"OBJECT_NAME":"LEOPARD","OBJECT_ID":"1998-067YD","EPOCH":"2026-03-04T07:34:28.800768","MEAN_MOTION":15.51484974,"ECCENTRICITY":0.0007781,"INCLINATION":51.6306,"RA_OF_ASC_NODE":98.5236,"ARG_OF_PERICENTER":136.2386,"MEAN_ANOMALY":223.9221,"EPHEMERIS_TYPE":0,"CLASSIFICATION_TYPE":"U","NORAD_CAT_ID":67687,"ELEMENT_SET_NO":999,"REV_AT_EPOCH":387,"BSTAR":0.00094368,"MEAN_MOTION_DOT":0.00056781,"MEAN_MOTION_DDOT":0},{"OBJECT_NAME":"ISS OBJECT YE","OBJECT_ID":"1998-067YE","EPOCH":"2026-03-04T12:07:23.752992","MEAN_MOTION":15.51890022,"ECCENTRICITY":0.0007786,"INCLINATION":51.6315,"RA_OF_ASC_NODE":97.5383,"ARG_OF_PERICENTER":134.731,"MEAN_ANOMALY":225.4314,"EPHEMERIS_TYPE":0,"CLASSIFICATION_TYPE":"U","NORAD_CAT_ID":67688,"ELEMENT_SET_NO":999,"REV_AT_EPOCH":390,"BSTAR":0.0010599,"MEAN_MOTION_DOT":0.00064836,"MEAN_MOTION_DDOT":0},{"OBJECT_NAME":"PRC TEST SPACECRAFT 4","OBJECT_ID":"2026-024A","EPOCH":"2026-03-04T12:51:55.742112","MEAN_MOTION":14.91683594,"ECCENTRICITY":0.0006107,"INCLINATION":49.9859,"RA_OF_ASC_NODE":46.9636,"ARG_OF_PERICENTER":340.3339,"MEAN_ANOMALY":19.7366,"EPHEMERIS_TYPE":0,"CLASSIFICATION_TYPE":"U","NORAD_CAT_ID":67689,"ELEMENT_SET_NO":999,"REV_AT_EPOCH":381,"BSTAR":4.7806e-5,"MEAN_MOTION_DOT":2.42e-6,"MEAN_MOTION_DDOT":0},{"OBJECT_NAME":"CZ-2F R/B","OBJECT_ID":"2026-024B","EPOCH":"2026-03-04T10:15:23.650848","MEAN_MOTION":15.34091462,"ECCENTRICITY":0.0174982,"INCLINATION":49.9873,"RA_OF_ASC_NODE":40.9872,"ARG_OF_PERICENTER":253.0719,"MEAN_ANOMALY":105.0993,"EPHEMERIS_TYPE":0,"CLASSIFICATION_TYPE":"U","NORAD_CAT_ID":67690,"ELEMENT_SET_NO":999,"REV_AT_EPOCH":388,"BSTAR":0.00047594,"MEAN_MOTION_DOT":0.00026077,"MEAN_MOTION_DDOT":0},{"OBJECT_NAME":"CZ-2F DEB","OBJECT_ID":"2026-024C","EPOCH":"2026-03-04T08:31:42.774816","MEAN_MOTION":15.95791008,"ECCENTRICITY":0.0155308,"INCLINATION":49.9035,"RA_OF_ASC_NODE":33.341,"ARG_OF_PERICENTER":266.9758,"MEAN_ANOMALY":91.3445,"EPHEMERIS_TYPE":0,"CLASSIFICATION_TYPE":"U","NORAD_CAT_ID":67691,"ELEMENT_SET_NO":999,"REV_AT_EPOCH":396,"BSTAR":0.00080769,"MEAN_MOTION_DOT":0.01283344,"MEAN_MOTION_DDOT":1.0949e-5},{"OBJECT_NAME":"CZ-2F DEB","OBJECT_ID":"2026-024D","EPOCH":"2026-03-04T10:21:16.356384","MEAN_MOTION":15.23201021,"ECCENTRICITY":0.0239218,"INCLINATION":50.3181,"RA_OF_ASC_NODE":44.499,"ARG_OF_PERICENTER":259.3456,"MEAN_ANOMALY":98.0484,"EPHEMERIS_TYPE":0,"CLASSIFICATION_TYPE":"U","NORAD_CAT_ID":67692,"ELEMENT_SET_NO":999,"REV_AT_EPOCH":382,"BSTAR":0.0051026,"MEAN_MOTION_DOT":0.00286342,"MEAN_MOTION_DDOT":0},{"OBJECT_NAME":"STARLINK-36748","OBJECT_ID":"2026-025A","EPOCH":"2026-03-04T06:27:32.819040","MEAN_MOTION":15.75292619,"ECCENTRICITY":0.0001538,"INCLINATION":97.284,"RA_OF_ASC_NODE":174.5329,"ARG_OF_PERICENTER":5.6342,"MEAN_ANOMALY":354.494,"EPHEMERIS_TYPE":0,"CLASSIFICATION_TYPE":"U","NORAD_CAT_ID":67693,"ELEMENT_SET_NO":999,"REV_AT_EPOCH":508,"BSTAR":0.0018926,"MEAN_MOTION_DOT":0.00293378,"MEAN_MOTION_DDOT":0},{"OBJECT_NAME":"STARLINK-36753","OBJECT_ID":"2026-025B","EPOCH":"2026-03-04T06:16:22.120896","MEAN_MOTION":15.75268356,"ECCENTRICITY":9.06e-5,"INCLINATION":97.2835,"RA_OF_ASC_NODE":174.5429,"ARG_OF_PERICENTER":77.4971,"MEAN_ANOMALY":282.6395,"EPHEMERIS_TYPE":0,"CLASSIFICATION_TYPE":"U","NORAD_CAT_ID":67694,"ELEMENT_SET_NO":999,"REV_AT_EPOCH":509,"BSTAR":0.0012626,"MEAN_MOTION_DOT":0.00193167,"MEAN_MOTION_DDOT":0},{"OBJECT_NAME":"STARLINK-36750","OBJECT_ID":"2026-025C","EPOCH":"2026-03-04T07:10:38.890272","MEAN_MOTION":15.80863143,"ECCENTRICITY":0.0001414,"INCLINATION":97.2845,"RA_OF_ASC_NODE":174.6474,"ARG_OF_PERICENTER":50.5839,"MEAN_ANOMALY":309.5554,"EPHEMERIS_TYPE":0,"CLASSIFICATION_TYPE":"U","NORAD_CAT_ID":67695,"ELEMENT_SET_NO":999,"REV_AT_EPOCH":509,"BSTAR":0.00068688,"MEAN_MOTION_DOT":0.00133752,"MEAN_MOTION_DDOT":0}]
